{
"type": "FeatureCollection",
"name": "boundary_ES-MAD-BELLASVISTAS",
"crs": { "type": "name", "properties": { "name": "urn:ogc:def:crs:OGC:1.3:CRS84" } },
"features": [
{ "type": "Feature", "properties": { "site_id": "ES-MAD-BELLASVISTAS" }, "geometry": { "type": "Polygon", "coordinates": [ [ [ -3.7029124, 40.453976 ], [ -3.7029153, 40.453956 ], [ -3.7029163, 40.4539492 ], [ -3.7029201, 40.4539225 ], [ -3.7029248, 40.453892 ], [ -3.7029762, 40.4535592 ], [ -3.702984, 40.4535086 ], [ -3.7029985, 40.4534169 ], [ -3.7030739, 40.4529379 ], [ -3.7030872, 40.4528538 ], [ -3.7030978, 40.4527801 ], [ -3.7031016, 40.4527536 ], [ -3.7031073, 40.452717 ], [ -3.703159, 40.4523818 ], [ -3.7031962, 40.4521411 ], [ -3.7032378, 40.4518667 ], [ -3.7032616, 40.4517156 ], [ -3.7032682, 40.4516716 ], [ -3.7032846, 40.4515624 ], [ -3.7033197, 40.4513214 ], [ -3.7033586, 40.4510621 ], [ -3.7034345, 40.4505624 ], [ -3.7034454, 40.4504812 ], [ -3.7034704, 40.4503148 ], [ -3.7034758, 40.4502789 ], [ -3.7034805, 40.4502464 ], [ -3.7035192, 40.4499801 ], [ -3.7036001, 40.4494289 ], [ -3.7036316, 40.4492109 ], [ -3.703649, 40.4490978 ], [ -3.7036661, 40.4489788 ], [ -3.7037164, 40.4486439 ], [ -3.703759, 40.4483736 ], [ -3.7038221, 40.4479452 ], [ -3.703833, 40.4478713 ], [ -3.703861, 40.4476792 ], [ -3.7038912, 40.4474556 ], [ -3.7037494, 40.4471896 ], [ -3.7037175, 40.4471718 ], [ -3.7036887, 40.4471513 ], [ -3.7036695, 40.4471345 ], [ -3.7036523, 40.4471166 ], [ -3.703639, 40.4471 ], [ -3.7036274, 40.4470828 ], [ -3.7036108, 40.4470498 ], [ -3.7035998, 40.4470127 ], [ -3.7035961, 40.4469749 ], [ -3.7039151, 40.4468535 ], [ -3.7045459, 40.4468812 ], [ -3.7058569, 40.4469546 ], [ -3.7061686, 40.4469654 ], [ -3.7082704, 40.4471001 ], [ -3.7084027, 40.4472756 ], [ -3.7085672, 40.4475112 ], [ -3.7088311, 40.4479461 ], [ -3.7092928, 40.4487213 ], [ -3.7098287, 40.4494235 ], [ -3.7101277, 40.4498694 ], [ -3.7115827, 40.4520393 ], [ -3.711786, 40.4524016 ], [ -3.7122221, 40.4524848 ], [ -3.7133277, 40.453044 ], [ -3.712673, 40.4539509 ], [ -3.7130078, 40.4545943 ], [ -3.7130555, 40.4547451 ], [ -3.7130731, 40.4548437 ], [ -3.713057, 40.4550952 ], [ -3.7130527, 40.4551889 ], [ -3.7130195, 40.4553943 ], [ -3.7129519, 40.4554967 ], [ -3.7128767, 40.4556058 ], [ -3.7124748, 40.4561737 ], [ -3.7123906, 40.4562961 ], [ -3.7123069, 40.4564189 ], [ -3.7122428, 40.45651 ], [ -3.7121828, 40.4565969 ], [ -3.7118669, 40.4570469 ], [ -3.711687, 40.4573057 ], [ -3.7116551, 40.4573862 ], [ -3.7113958, 40.457555 ], [ -3.711152, 40.4574936 ], [ -3.7110138, 40.457551 ], [ -3.7109765, 40.4575665 ], [ -3.7109174, 40.4575872 ], [ -3.7108683, 40.4576013 ], [ -3.710822, 40.4576112 ], [ -3.710725, 40.4576178 ], [ -3.7106324, 40.4576207 ], [ -3.7105393, 40.45762 ], [ -3.7104354, 40.4575632 ], [ -3.7097784, 40.4571604 ], [ -3.7096189, 40.4570929 ], [ -3.7084824, 40.4567747 ], [ -3.7081446, 40.4566823 ], [ -3.7078027, 40.4566675 ], [ -3.7077695, 40.4566657 ], [ -3.7077246, 40.4566635 ], [ -3.7076045, 40.4566575 ], [ -3.7066921, 40.4566214 ], [ -3.7066439, 40.4566195 ], [ -3.7066009, 40.4566172 ], [ -3.7064047, 40.4566067 ], [ -3.7063078, 40.4566028 ], [ -3.7053657, 40.4565644 ], [ -3.7052053, 40.4565572 ], [ -3.7051692, 40.4565556 ], [ -3.7051286, 40.456555 ], [ -3.7050018, 40.4565533 ], [ -3.7049734, 40.4565529 ], [ -3.7049439, 40.4565137 ], [ -3.7049015, 40.4564574 ], [ -3.7048484, 40.4563906 ], [ -3.7048299, 40.4563674 ], [ -3.7041253, 40.4554816 ], [ -3.7040598, 40.4553989 ], [ -3.7038522, 40.4551426 ], [ -3.7038321, 40.4551176 ], [ -3.7038054, 40.4550863 ], [ -3.7037663, 40.4550392 ], [ -3.7031156, 40.4542384 ], [ -3.7031122, 40.4542324 ], [ -3.7030955, 40.4542124 ], [ -3.7029124, 40.453976 ] ] ] } }
]
}
