{
"type": "FeatureCollection",
"name": "boundary_IT-BOL-GALVANI2",
"crs": { "type": "name", "properties": { "name": "urn:ogc:def:crs:OGC:1.3:CRS84" } },
"features": [
{ "type": "Feature", "properties": { "site_id": "IT-BOL-GALVANI2" }, "geometry": { "type": "Polygon", "coordinates": [ [ [ 11.356788037719317, 44.490254303965685 ], [ 11.355952184024162, 44.490578212963086 ], [ 11.355921266456441, 44.490591229609919 ], [ 11.355693216161928, 44.490680011107166 ], [ 11.355098612990952, 44.490911492943503 ], [ 11.35465159361239, 44.49107328138831 ], [ 11.354142941889334, 44.49126655180072 ], [ 11.354011253047446, 44.491311957766435 ], [ 11.353960639887768, 44.491331240716029 ], [ 11.353744053421021, 44.49141375918218 ], [ 11.352698491539376, 44.491840438406527 ], [ 11.352046885763343, 44.492095252487118 ], [ 11.3516427653942, 44.492249303244769 ], [ 11.351621846693611, 44.492178847817627 ], [ 11.351505070427899, 44.491904864998588 ], [ 11.351420486179252, 44.49170643483977 ], [ 11.351306551070769, 44.491453333291169 ], [ 11.351195453732235, 44.491231691229586 ], [ 11.351055438415422, 44.490975201448244 ], [ 11.350858811575456, 44.490675098471584 ], [ 11.350645704307135, 44.49034446462899 ], [ 11.350567313943239, 44.490232430128742 ], [ 11.350413053377094, 44.490031931865275 ], [ 11.35034690161501, 44.489950587115679 ], [ 11.3502907381672, 44.49000013238912 ], [ 11.349979242600496, 44.490287867214164 ], [ 11.34990280266879, 44.49036146150334 ], [ 11.349830431319873, 44.490438347960556 ], [ 11.349545647691807, 44.490725540725229 ], [ 11.349518479707399, 44.490753665828635 ], [ 11.349323106690525, 44.490919175278378 ], [ 11.34916110601327, 44.491054172052372 ], [ 11.349080552500238, 44.491122781979634 ], [ 11.348969952102642, 44.491205784096302 ], [ 11.34886737991831, 44.491256013539818 ], [ 11.348489962961409, 44.491350995862412 ], [ 11.348143974763914, 44.491406511289902 ], [ 11.347622777814813, 44.491463936565339 ], [ 11.346823421301471, 44.491504580861957 ], [ 11.346452403959564, 44.491504330537666 ], [ 11.34633317947301, 44.491510724292354 ], [ 11.345873336747946, 44.49151061429616 ], [ 11.345612084342259, 44.491503613210192 ], [ 11.344963612991442, 44.491464613004595 ], [ 11.344858821612178, 44.491458330171 ], [ 11.344158501722337, 44.491420399408867 ], [ 11.344087791968658, 44.491421284254621 ], [ 11.343679857932905, 44.491402103308459 ], [ 11.343483707753339, 44.491395813310355 ], [ 11.343209190686224, 44.491387008434359 ], [ 11.343114706290073, 44.491382763075244 ], [ 11.342961117016499, 44.491375229461788 ], [ 11.342815574609462, 44.491372031787698 ], [ 11.342696578401847, 44.491364346009007 ], [ 11.34175249045882, 44.491324092776068 ], [ 11.341725281718251, 44.491233499720131 ], [ 11.341626688437749, 44.490989643481129 ], [ 11.341509038446464, 44.490779937748265 ], [ 11.341478671026344, 44.490728237585216 ], [ 11.341359424790122, 44.490537694934176 ], [ 11.341189198988605, 44.490232289356094 ], [ 11.34105956696847, 44.489998080751285 ], [ 11.34083627992497, 44.489682518545166 ], [ 11.34078371198264, 44.489606516302288 ], [ 11.34071957974246, 44.489520920329923 ], [ 11.34068572707252, 44.489475746267786 ], [ 11.340300767577851, 44.488930555833136 ], [ 11.340243713326528, 44.488860262924156 ], [ 11.340207334953508, 44.488815437579284 ], [ 11.34015215254253, 44.488772123029364 ], [ 11.340055927977005, 44.488724581326544 ], [ 11.339884703438331, 44.488654846050373 ], [ 11.339811476982872, 44.488508470404554 ], [ 11.339749664930213, 44.488338697083122 ], [ 11.339715771235726, 44.488139651242712 ], [ 11.339651606369557, 44.487537801580736 ], [ 11.339628704476432, 44.487240636195899 ], [ 11.339615573550972, 44.486912319614675 ], [ 11.339603433754197, 44.486707201223837 ], [ 11.339594025781333, 44.48662918849606 ], [ 11.3395598787907, 44.48649483139814 ], [ 11.339551143007723, 44.486421360201334 ], [ 11.339711119849465, 44.486402479925466 ], [ 11.340270797000491, 44.486332418501071 ], [ 11.341611253194248, 44.486163031103935 ], [ 11.342690249162384, 44.486039118545371 ], [ 11.344104319820879, 44.485868722245485 ], [ 11.344424649126502, 44.485830130746621 ], [ 11.346235821176382, 44.485606340874391 ], [ 11.347267100367841, 44.485479989761679 ], [ 11.347453594891316, 44.485487453113443 ], [ 11.347735397884012, 44.485447537952815 ], [ 11.347908660567713, 44.485425492103779 ], [ 11.348091406777684, 44.485402233627049 ], [ 11.34899433559344, 44.485292577984147 ], [ 11.349247317541939, 44.485261849625729 ], [ 11.350297178987731, 44.485134449508749 ], [ 11.353281198780511, 44.484776175333863 ], [ 11.354117076671551, 44.484662351777175 ], [ 11.35575443140123, 44.484465059766613 ], [ 11.355862719151753, 44.484437284647214 ], [ 11.355954725650713, 44.484418352899525 ], [ 11.356025608164748, 44.484406672024583 ], [ 11.356087334228151, 44.484403696547695 ], [ 11.356151069801928, 44.484408151715577 ], [ 11.356234418075008, 44.484432466869343 ], [ 11.356299368963365, 44.484451796165629 ], [ 11.356371993759653, 44.484475567345918 ], [ 11.356490524365737, 44.484553171644471 ], [ 11.356614703517094, 44.484658918357056 ], [ 11.356661594464686, 44.484744069149542 ], [ 11.356692056421757, 44.48478100810015 ], [ 11.356728020236467, 44.484816230993303 ], [ 11.357895746256347, 44.485613171680477 ], [ 11.357945428889366, 44.485657068395845 ], [ 11.357983294262498, 44.485703243776634 ], [ 11.358005028373169, 44.485752309097144 ], [ 11.358016756307171, 44.4857980430873 ], [ 11.358013883734108, 44.485849390203278 ], [ 11.357998525204639, 44.485994379141289 ], [ 11.357978166747799, 44.486073356305653 ], [ 11.357963762587008, 44.486148114293016 ], [ 11.357820244190201, 44.487377673010187 ], [ 11.357681930094918, 44.488523363740569 ], [ 11.357599498487186, 44.489125421956878 ], [ 11.357544942467817, 44.489724230596806 ], [ 11.357551167467708, 44.489911751997909 ], [ 11.357518902224014, 44.490188059609473 ], [ 11.357407948788257, 44.490181141344785 ], [ 11.357087199515895, 44.490205940999353 ], [ 11.356999080832614, 44.490185803166852 ], [ 11.356788037719317, 44.490254303965685 ] ] ] } }
]
}
