{
"type": "FeatureCollection",
"name": "boundary_ES-MAD-EMBAJADORES",
"crs": { "type": "name", "properties": { "name": "urn:ogc:def:crs:OGC:1.3:CRS84" } },
"features": [
{ "type": "Feature", "properties": { "site_id": "ES-MAD-EMBAJADORES" }, "geometry": { "type": "Polygon", "coordinates": [ [ [ -3.7116643, 40.4066895 ], [ -3.7113317, 40.407135 ], [ -3.7110487, 40.4079184 ], [ -3.7104393, 40.4086896 ], [ -3.7103825, 40.4088039 ], [ -3.7103157, 40.4088926 ], [ -3.7102331, 40.4090056 ], [ -3.7101468, 40.4091217 ], [ -3.7100407, 40.4092519 ], [ -3.7099694, 40.4093377 ], [ -3.7097877, 40.4095601 ], [ -3.7092417, 40.4102602 ], [ -3.7091565, 40.4103756 ], [ -3.7091111, 40.4104289 ], [ -3.7090903, 40.4104536 ], [ -3.7090566, 40.410496 ], [ -3.7089165, 40.4106613 ], [ -3.7088492, 40.4107503 ], [ -3.7088373, 40.4107649 ], [ -3.7085782, 40.4110573 ], [ -3.708554, 40.4110846 ], [ -3.7085318, 40.4111097 ], [ -3.7085067, 40.4111342 ], [ -3.7082398, 40.4114246 ], [ -3.7081894, 40.4115011 ], [ -3.7080384, 40.4117983 ], [ -3.7078824, 40.4121074 ], [ -3.707653, 40.4125306 ], [ -3.7075855, 40.4126321 ], [ -3.7075514, 40.412713 ], [ -3.7075316, 40.4127989 ], [ -3.707463, 40.4131427 ], [ -3.7074559, 40.4131786 ], [ -3.7074511, 40.4132106 ], [ -3.7074314, 40.4132977 ], [ -3.707427, 40.4133461 ], [ -3.7074371, 40.4136111 ], [ -3.707358, 40.4136387 ], [ -3.7071916, 40.4136906 ], [ -3.7068596, 40.4137956 ], [ -3.7067171, 40.4138418 ], [ -3.7066081, 40.4138772 ], [ -3.7064669, 40.413924 ], [ -3.7064169, 40.4139391 ], [ -3.7063747, 40.4139503 ], [ -3.7062989, 40.4139626 ], [ -3.7062164, 40.4139732 ], [ -3.7061645, 40.4139791 ], [ -3.7061083, 40.4139841 ], [ -3.7060452, 40.4139854 ], [ -3.7059774, 40.4139851 ], [ -3.70591, 40.4139835 ], [ -3.705828, 40.4139814 ], [ -3.7057694, 40.4139787 ], [ -3.7055473, 40.4139652 ], [ -3.7053929, 40.4139568 ], [ -3.7049066, 40.4139303 ], [ -3.7048706, 40.4139289 ], [ -3.7048374, 40.4139287 ], [ -3.7047995, 40.4139322 ], [ -3.7047703, 40.4139361 ], [ -3.7047405, 40.413943 ], [ -3.7047151, 40.4139498 ], [ -3.7047129, 40.4139505 ], [ -3.7046865, 40.4139593 ], [ -3.7046546, 40.4139696 ], [ -3.7046086, 40.4139878 ], [ -3.7046052, 40.4139892 ], [ -3.7045481, 40.4140127 ], [ -3.7044929, 40.4140368 ], [ -3.70436, 40.4140937 ], [ -3.7040025, 40.4142564 ], [ -3.7039864, 40.4142651 ], [ -3.7039712, 40.4142756 ], [ -3.7039561, 40.4142901 ], [ -3.7035617, 40.4141785 ], [ -3.7035326, 40.4141679 ], [ -3.7034828, 40.4141495 ], [ -3.7034361, 40.4141323 ], [ -3.7033291, 40.4140941 ], [ -3.7032403, 40.4140626 ], [ -3.7031334, 40.4140252 ], [ -3.7028532, 40.4139271 ], [ -3.7023668, 40.4137586 ], [ -3.7022269, 40.4137101 ], [ -3.7018351, 40.4135741 ], [ -3.7017048, 40.4135275 ], [ -3.7016124, 40.4134931 ], [ -3.7015354, 40.4134622 ], [ -3.701488, 40.4134433 ], [ -3.7005708, 40.4130697 ], [ -3.7002458, 40.4129355 ], [ -3.7001141, 40.4128786 ], [ -3.7000345, 40.4128413 ], [ -3.6998584, 40.4127556 ], [ -3.6996017, 40.4126237 ], [ -3.6995661, 40.4126048 ], [ -3.6994467, 40.4125414 ], [ -3.6986971, 40.4121574 ], [ -3.6985231, 40.4120702 ], [ -3.6983024, 40.4119561 ], [ -3.6981694, 40.4118715 ], [ -3.697848, 40.4117063 ], [ -3.6972561, 40.411402 ], [ -3.6971643, 40.4113556 ], [ -3.6970765, 40.4113102 ], [ -3.6968321, 40.4111894 ], [ -3.6965721, 40.4110608 ], [ -3.6957596, 40.4106705 ], [ -3.6956218, 40.4106161 ], [ -3.6955568, 40.4105877 ], [ -3.6954368, 40.4105341 ], [ -3.6951886, 40.4104256 ], [ -3.6950542, 40.4103676 ], [ -3.6940611, 40.4099393 ], [ -3.6939235, 40.4098793 ], [ -3.693758, 40.4097642 ], [ -3.6934948, 40.4096583 ], [ -3.6934344, 40.4096369 ], [ -3.6933209, 40.409602 ], [ -3.693274, 40.4095856 ], [ -3.693094, 40.4095118 ], [ -3.6929757, 40.4094607 ], [ -3.6929021, 40.4094289 ], [ -3.6927518, 40.4093633 ], [ -3.6924407, 40.409231 ], [ -3.6922995, 40.4091667 ], [ -3.692153, 40.4090618 ], [ -3.6924848, 40.4085599 ], [ -3.6929258, 40.4079938 ], [ -3.6932031, 40.407797 ], [ -3.6934248, 40.4076814 ], [ -3.6936809, 40.4075691 ], [ -3.693828, 40.4074909 ], [ -3.6940361, 40.4073801 ], [ -3.6959319, 40.4068446 ], [ -3.6977791, 40.4063204 ], [ -3.699326, 40.4059263 ], [ -3.6997537, 40.4058077 ], [ -3.7026593, 40.4050021 ], [ -3.704525, 40.4053167 ], [ -3.7062455, 40.4056274 ], [ -3.7083074, 40.4060198 ], [ -3.7095215, 40.4062509 ], [ -3.7101131, 40.4063646 ], [ -3.7108065, 40.4064942 ], [ -3.7109387, 40.4065148 ], [ -3.7110584, 40.4065281 ], [ -3.7116643, 40.4066895 ] ] ] } }
]
}
