{
"type": "FeatureCollection",
"name": "boundary_GB-LDN-STDUNSTANS",
"crs": { "type": "name", "properties": { "name": "urn:ogc:def:crs:OGC:1.3:CRS84" } },
"features": [
{ "type": "Feature", "properties": { "site_id": "GB-LDN-STDUNSTANS" }, "geometry": { "type": "Polygon", "coordinates": [ [ [ -0.036469972018785, 51.512596946020501 ], [ -0.037831056339305, 51.512652086987302 ], [ -0.038924331487091, 51.512698240208699 ], [ -0.039857856994725, 51.512742612939498 ], [ -0.041092244357176, 51.512826165664698 ], [ -0.041338214558622, 51.5128374656258 ], [ -0.041739160281166, 51.512931364553701 ], [ -0.04181200333999, 51.512947954636701 ], [ -0.041787037818943, 51.513025751382102 ], [ -0.041711065839194, 51.5131845081157 ], [ -0.041637631210053, 51.5133505895068 ], [ -0.041597832689453, 51.513472191364698 ], [ -0.041542191213962, 51.513658348438803 ], [ -0.041514450375195, 51.513836789727797 ], [ -0.041459998923837, 51.514164111447002 ], [ -0.041386546994524, 51.514565824976998 ], [ -0.041367471404749, 51.514741714003897 ], [ -0.041373666285653, 51.514832708048701 ], [ -0.041413403902047, 51.515249706081903 ], [ -0.041457686115576, 51.515729712061599 ], [ -0.04147339873431, 51.515801086324103 ], [ -0.0415429702269, 51.515891250782502 ], [ -0.041645331568018, 51.515992750251201 ], [ -0.041796113414064, 51.516140098895697 ], [ -0.041988118187362, 51.516332097234901 ], [ -0.042049452034026, 51.516381668183598 ], [ -0.042118098718728, 51.516426955592102 ], [ -0.04233315124034, 51.516555507424499 ], [ -0.042471729225299, 51.516652216516 ], [ -0.042581908052906, 51.516737752941701 ], [ -0.042627407451173, 51.516785260802699 ], [ -0.042633671410484, 51.517378892916803 ], [ -0.042653547929456, 51.517552732370802 ], [ -0.04268509592565, 51.517759219940103 ], [ -0.042779832213088, 51.517767093368803 ], [ -0.043069865698179, 51.517793508121699 ], [ -0.043207795689721, 51.517805696873097 ], [ -0.04336656672366, 51.517833516848803 ], [ -0.043592181737297, 51.517882229555802 ], [ -0.043776344183434, 51.517924856917602 ], [ -0.044013981829092, 51.517995344285701 ], [ -0.044403997429212, 51.5181125129969 ], [ -0.044501777656112, 51.518149203955801 ], [ -0.044678507383406, 51.5182294631772 ], [ -0.044787156355566, 51.5182843148079 ], [ -0.044862633913395, 51.5183062501332 ], [ -0.044944392643201, 51.518317501656 ], [ -0.045180105658782, 51.518333115856699 ], [ -0.045274456321305, 51.518350060620499 ], [ -0.04523142233429, 51.518411374563399 ], [ -0.045204994391162, 51.518456783890599 ], [ -0.045207463031502, 51.518501774491099 ], [ -0.045211200657077, 51.5185144227938 ], [ -0.045059288727761, 51.518628762196599 ], [ -0.04494193275168, 51.518710504444002 ], [ -0.044924015903224, 51.518723690293001 ], [ -0.044961352990959, 51.518762070528801 ], [ -0.045007394303715, 51.518796999644003 ], [ -0.045084279696926, 51.518854019474901 ], [ -0.045102964968558, 51.518870063336202 ], [ -0.045120437296284, 51.518882490847602 ], [ -0.045134541315148, 51.518891715728998 ], [ -0.045151321355627, 51.518903682071603 ], [ -0.045180736865122, 51.518923051200701 ], [ -0.045225546388355, 51.5189534652012 ], [ -0.045277404900097, 51.5189885810397 ], [ -0.045299249946695, 51.519000183009901 ], [ -0.045330728958013, 51.519022732082902 ], [ -0.045355696431768, 51.519044723940901 ], [ -0.045386983004628, 51.519071766086398 ], [ -0.045460036495048, 51.5191336659352 ], [ -0.045486414391697, 51.519155980709797 ], [ -0.045501656361864, 51.519170543614997 ], [ -0.045524806270505, 51.519203068750599 ], [ -0.04555871232892, 51.519252179127498 ], [ -0.045650247204519, 51.519392240921498 ], [ -0.045655614184959, 51.519406563784301 ], [ -0.045662849861595, 51.5194284103966 ], [ -0.045684670590253, 51.519507886138499 ], [ -0.045741040722566, 51.519570855890898 ], [ -0.045756338772324, 51.519585494328702 ], [ -0.045784426675505, 51.519601245937899 ], [ -0.0457999517751, 51.519610584322699 ], [ -0.045854895340053, 51.5196402675722 ], [ -0.045895115782665, 51.5196085730907 ], [ -0.045926520343381, 51.519582934865703 ], [ -0.045986237495943, 51.519534484529203 ], [ -0.046044528509252, 51.519486010416003 ], [ -0.046084945209632, 51.5194525206267 ], [ -0.046138460067187, 51.519479483075997 ], [ -0.046179380347191, 51.519500842026197 ], [ -0.046207623544035, 51.519515695959697 ], [ -0.046262528784105, 51.519546277634802 ], [ -0.046295374127034, 51.519568850074201 ], [ -0.046344056557526, 51.519626836410097 ], [ -0.046408555172925, 51.519636001834002 ], [ -0.046431036906618, 51.519649411794497 ], [ -0.046500332830456, 51.519679782416503 ], [ -0.046546241585338, 51.519702572269097 ], [ -0.046607635617132, 51.519666285937802 ], [ -0.046660455806377, 51.519627609597599 ], [ -0.046726149776228, 51.519658819377803 ], [ -0.046777969821059, 51.519626868976403 ], [ -0.046842854722825, 51.519660312467202 ], [ -0.046903423293019, 51.519691887354803 ], [ -0.046966922230997, 51.519724409342999 ], [ -0.047026894721724, 51.519754625353201 ], [ -0.046988003371603, 51.519788589573103 ], [ -0.047046346780427, 51.5198297907693 ], [ -0.047116080446509, 51.519877024885801 ], [ -0.047098317540504, 51.519886618388902 ], [ -0.047163782828021, 51.519924566735199 ], [ -0.04733877651838, 51.519827690176001 ], [ -0.047446778887358, 51.519897811268997 ], [ -0.047472017001149, 51.519913514130899 ], [ -0.047525305334365, 51.519948562762004 ], [ -0.047557591340914, 51.5199689681954 ], [ -0.047527771083991, 51.519990947143597 ], [ -0.047644309550829, 51.520064356576697 ], [ -0.047629459212068, 51.520075346608003 ], [ -0.047679201989213, 51.520108539448898 ], [ -0.047469267836974, 51.520247087635603 ], [ -0.047494463843261, 51.520263778969401 ], [ -0.047514153260129, 51.520275793353399 ], [ -0.047568906539087, 51.520309967069402 ], [ -0.047608249847427, 51.5203348953724 ], [ -0.047681229082403, 51.5204125240693 ], [ -0.04769810782562, 51.520423593295902 ], [ -0.047774901845098, 51.520481508024197 ], [ -0.047806999989965, 51.520506314812302 ], [ -0.047840484322105, 51.520532043910002 ], [ -0.047874007144333, 51.5205568743798 ], [ -0.047907491551148, 51.520582603457498 ], [ -0.047940972150515, 51.5206084223869 ], [ -0.047956387969728, 51.520620366492601 ], [ -0.048012220668719, 51.520662648556304 ], [ -0.048082958110733, 51.520626068155302 ], [ -0.048174348509611, 51.520578952041703 ], [ -0.04830260704318, 51.520511862394898 ], [ -0.04834830009757, 51.520488349643301 ], [ -0.048370611351019, 51.5205058012275 ], [ -0.048388065976216, 51.520518677542697 ], [ -0.048369150954011, 51.520539938822402 ], [ -0.048353009056042, 51.520547761860499 ], [ -0.048368382292502, 51.520557906687003 ], [ -0.048399170057226, 51.520579994635497 ], [ -0.048469024798213, 51.520630691129 ], [ -0.048496963440815, 51.520652731663901 ], [ -0.048524823790284, 51.520676569403598 ], [ -0.0485548990319, 51.520705612901203 ], [ -0.048605281190101, 51.520748928089603 ], [ -0.048730341639536, 51.520689876310698 ], [ -0.04874513574661, 51.5206802331939 ], [ -0.048831167651161, 51.520625026787002 ], [ -0.048896056259189, 51.520673752892002 ], [ -0.04896230675589, 51.5206480341336 ], [ -0.048990144208044, 51.520648346814198 ], [ -0.049025857600018, 51.520621971000701 ], [ -0.04907306103434, 51.5206632106988 ], [ -0.049113252418315, 51.520701636922503 ], [ -0.049179300916494, 51.520774654883702 ], [ -0.049216604829318, 51.520813932318099 ], [ -0.049281382696794, 51.520883332959897 ], [ -0.049310508383092, 51.520874827282803 ], [ -0.049469400931872, 51.520833417637903 ], [ -0.049556860356203, 51.520811497947101 ], [ -0.049653146379676, 51.520786127876299 ], [ -0.049662703432408, 51.520798872721002 ], [ -0.049786646080793, 51.520763174743998 ], [ -0.049953162603829, 51.520982690821498 ], [ -0.050012898535472, 51.521069986963099 ], [ -0.048946255007137, 51.521304965773702 ], [ -0.048227447767779, 51.521460226151703 ], [ -0.047261733945011, 51.521660908398303 ], [ -0.046684860651939, 51.521768177397199 ], [ -0.04620176487845, 51.521872599603199 ], [ -0.045667810790896, 51.521987769698697 ], [ -0.044907019169609, 51.522115431293599 ], [ -0.044468538388412, 51.522188135615004 ], [ -0.04420174849516, 51.522223245946897 ], [ -0.044064501743574, 51.5222308466331 ], [ -0.043836091112733, 51.522246817540001 ], [ -0.043405542367012, 51.522267508417698 ], [ -0.043041386002954, 51.522289304958697 ], [ -0.042776331462004, 51.522319945630002 ], [ -0.042571612065556, 51.5223515921667 ], [ -0.042062800785201, 51.522451074256402 ], [ -0.041471149694133, 51.522567061508703 ], [ -0.04088615744126, 51.522696731365002 ], [ -0.040431900512479, 51.522834785588898 ], [ -0.039873560150271, 51.523013442231097 ], [ -0.039610301756376, 51.523098944674302 ], [ -0.039338532293537, 51.523186102872202 ], [ -0.039063206004558, 51.523284079400497 ], [ -0.038804879639271, 51.523393037041998 ], [ -0.038611977856868, 51.523486905449197 ], [ -0.038353946101865, 51.523619330623198 ], [ -0.03803511229899, 51.523794700980197 ], [ -0.037253735971563, 51.5241620030503 ], [ -0.037038209540981, 51.524248389147203 ], [ -0.036956649564986, 51.524166024674201 ], [ -0.036801965032107, 51.524009707169398 ], [ -0.036733309603517, 51.523928546687102 ], [ -0.036654050043634, 51.523693388916897 ], [ -0.036584227699999, 51.523473672835202 ], [ -0.036541455674936, 51.523227528518298 ], [ -0.036501126198673, 51.5229273946061 ], [ -0.036469272042707, 51.522394470811399 ], [ -0.036439081216528, 51.521822917246602 ], [ -0.036416908411201, 51.521468247238502 ], [ -0.03640292293324, 51.5212215961445 ], [ -0.03634544414587, 51.520245841594203 ], [ -0.036315696137348, 51.519799346752102 ], [ -0.036241208460188, 51.519185697007799 ], [ -0.036208138022576, 51.519051101943901 ], [ -0.036171433104359, 51.518965081817598 ], [ -0.036119010348002, 51.518877000962902 ], [ -0.035976266152353, 51.5186425781365 ], [ -0.035865355350123, 51.518574194854899 ], [ -0.035570265011504, 51.518397453740903 ], [ -0.034097858985994, 51.517278433101502 ], [ -0.033974521528067, 51.517162102220901 ], [ -0.033841995182463, 51.5169611973201 ], [ -0.033758400027919, 51.516761023105502 ], [ -0.033744095788292, 51.516455924435903 ], [ -0.033828112168808, 51.516144381616797 ], [ -0.034079341028359, 51.515766416686098 ], [ -0.034141155558173, 51.515669458683497 ], [ -0.03429977806949, 51.515435583048401 ], [ -0.034851763709325, 51.514867477641999 ], [ -0.0356088124423, 51.514021321980103 ], [ -0.035929667675875, 51.513631933587199 ], [ -0.036099742936581, 51.513465675345103 ], [ -0.036192732907855, 51.513246072498099 ], [ -0.036355114044639, 51.512990682611999 ], [ -0.036469972018785, 51.512596946020501 ] ] ] } }
]
}
