{
"type": "FeatureCollection",
"name": "boundary_FR-LYO-CROIXROUSSE",
"crs": { "type": "name", "properties": { "name": "urn:ogc:def:crs:OGC:1.3:CRS84" } },
"features": [
{ "type": "Feature", "properties": { "site_id": "FR-LYO-CROIXROUSSE" }, "geometry": { "type": "MultiPolygon", "coordinates": [ [ [ [ 4.83634351, 45.78232522 ], [ 4.83621945, 45.78226107 ], [ 4.83576405, 45.78206484 ], [ 4.8353427, 45.78191044 ], [ 4.83314102, 45.78175818 ], [ 4.83271544, 45.78167008 ], [ 4.8324244, 45.78003295 ], [ 4.83231116, 45.77948792 ], [ 4.83228645, 45.77943279 ], [ 4.83224435, 45.77908714 ], [ 4.83222743, 45.7785844 ], [ 4.83223373, 45.77839646 ], [ 4.83221523, 45.77766576 ], [ 4.83223399, 45.77720348 ], [ 4.83231269, 45.77656545 ], [ 4.83232563, 45.77633313 ], [ 4.83232012, 45.7761146 ], [ 4.83228924, 45.77539851 ], [ 4.83236346, 45.77528139 ], [ 4.8324816, 45.77522099 ], [ 4.8325185, 45.77439148 ], [ 4.83474537, 45.77457925 ], [ 4.83539993, 45.77463494 ], [ 4.83551838, 45.77465418 ], [ 4.83571454, 45.77468602 ], [ 4.83579186, 45.77469864 ], [ 4.83589522, 45.77475178 ], [ 4.83590385, 45.77477171 ], [ 4.83590644, 45.774784 ], [ 4.8366444, 45.77474338 ], [ 4.8366909, 45.77473795 ], [ 4.8367045, 45.77473287 ], [ 4.83676058, 45.77472125 ], [ 4.83695871, 45.77468017 ], [ 4.83725033, 45.77446701 ], [ 4.83722245, 45.77437431 ], [ 4.83723995, 45.77428106 ], [ 4.83725847, 45.77424179 ], [ 4.83731136, 45.77420754 ], [ 4.83741189, 45.77432715 ], [ 4.83742537, 45.7743381 ], [ 4.83744967, 45.77432231 ], [ 4.83741742, 45.77418675 ], [ 4.837505, 45.77415906 ], [ 4.83757982, 45.77424398 ], [ 4.8375833, 45.77424806 ], [ 4.83772572, 45.77419851 ], [ 4.83767858, 45.77411863 ], [ 4.83833552, 45.77390714 ], [ 4.83846245, 45.7738717 ], [ 4.83855781, 45.77384243 ], [ 4.83872653, 45.77379084 ], [ 4.83877007, 45.77377735 ], [ 4.83977238, 45.77347792 ], [ 4.84274575, 45.77828335 ], [ 4.84303188, 45.77891944 ], [ 4.84129818, 45.77943513 ], [ 4.8411771, 45.77959343 ], [ 4.84068884, 45.78023233 ], [ 4.84038172, 45.78047508 ], [ 4.84007462, 45.78073052 ], [ 4.83995807, 45.78079631 ], [ 4.83963422, 45.78101584 ], [ 4.83950077, 45.78119314 ], [ 4.83925802, 45.78153538 ], [ 4.83889282, 45.78181569 ], [ 4.83858898, 45.78202617 ], [ 4.83840307, 45.78220053 ], [ 4.8381397, 45.78245211 ], [ 4.83810439, 45.78248535 ], [ 4.8380373, 45.78252208 ], [ 4.83780681, 45.78261652 ], [ 4.83763212, 45.78267865 ], [ 4.83757048, 45.78269369 ], [ 4.83752446, 45.78270244 ], [ 4.83744729, 45.78271062 ], [ 4.83710453, 45.78268078 ], [ 4.83699856, 45.78265063 ], [ 4.83687053, 45.78260248 ], [ 4.83634351, 45.78232522 ] ] ] ] } }
]
}
