{
"type": "FeatureCollection",
"name": "boundary_IT-BOL-PIAZZAUNITA",
"crs": { "type": "name", "properties": { "name": "urn:ogc:def:crs:OGC:1.3:CRS84" } },
"features": [
{ "type": "Feature", "properties": { "site_id": "IT-BOL-PIAZZAUNITA" }, "geometry": { "type": "Polygon", "coordinates": [ [ [ 11.353738925430122, 44.504210130462184 ], [ 11.35382086880408, 44.504395082109959 ], [ 11.354080777254891, 44.504919901852425 ], [ 11.354131961917263, 44.505023240092775 ], [ 11.35443087349495, 44.505627071400859 ], [ 11.354773972668106, 44.506340829971123 ], [ 11.354810203032395, 44.506413273466492 ], [ 11.354948727123325, 44.50669036864867 ], [ 11.355114633115942, 44.507035057160103 ], [ 11.355208662729709, 44.507214086755184 ], [ 11.355466541585551, 44.50772098486005 ], [ 11.355491076563299, 44.50778912315451 ], [ 11.355915357768065, 44.508688240131342 ], [ 11.356414458642782, 44.509709074033552 ], [ 11.356494224214321, 44.509862055442213 ], [ 11.356810225279689, 44.510510278995319 ], [ 11.356877291086089, 44.510631869311638 ], [ 11.355956908582989, 44.510702354221593 ], [ 11.35588927934244, 44.510707513055372 ], [ 11.353450644442374, 44.511045744840473 ], [ 11.352912235401844, 44.511120473931499 ], [ 11.351481992583587, 44.51131897729632 ], [ 11.350447600188135, 44.511459690556492 ], [ 11.349343013337398, 44.511612021006748 ], [ 11.348809736184535, 44.511683222140888 ], [ 11.347550123329626, 44.511863355953047 ], [ 11.346871856976255, 44.511955930874983 ], [ 11.345233180735214, 44.512190635975088 ], [ 11.344176021649179, 44.512333506574372 ], [ 11.343383874641269, 44.512441579031872 ], [ 11.342468408753049, 44.512563969969655 ], [ 11.342426750662931, 44.512568344807057 ], [ 11.341492425775984, 44.512695877251282 ], [ 11.341247286105034, 44.511762703348069 ], [ 11.340958587631098, 44.510696995072472 ], [ 11.340695051244934, 44.509674054279706 ], [ 11.3405195135747, 44.508939227115867 ], [ 11.340381416986016, 44.50838907585252 ], [ 11.340206165925832, 44.507709589970304 ], [ 11.342085880926891, 44.507455796833568 ], [ 11.342602145001299, 44.507387749053329 ], [ 11.342912110837185, 44.507346898802098 ], [ 11.343316765170771, 44.507291842498113 ], [ 11.343945059155409, 44.507208858246109 ], [ 11.345862562929824, 44.506950796938945 ], [ 11.346074452757366, 44.506922279474956 ], [ 11.346032280808943, 44.506777070521338 ], [ 11.345920192968279, 44.506391219328805 ], [ 11.345876593277884, 44.506241133246881 ], [ 11.345742841981021, 44.505781221773731 ], [ 11.345898949443134, 44.505752743583258 ], [ 11.345970407440893, 44.505740291929236 ], [ 11.346256367336116, 44.505693993238467 ], [ 11.346617977144536, 44.505635956829707 ], [ 11.346943671868075, 44.505579837018146 ], [ 11.347304087539408, 44.505520292547772 ], [ 11.347391807792143, 44.505505885141581 ], [ 11.347758082851088, 44.505441906515266 ], [ 11.348035088243247, 44.505390728084691 ], [ 11.348296646861039, 44.505342414472942 ], [ 11.349013489137054, 44.505202791044134 ], [ 11.349491766064649, 44.505105803278624 ], [ 11.350155541276559, 44.504965878487255 ], [ 11.35019079895954, 44.504961407534076 ], [ 11.35042935621051, 44.504931198616788 ], [ 11.350618884124779, 44.504903043115263 ], [ 11.350839706160141, 44.504871965187476 ], [ 11.351022189550399, 44.50484570058758 ], [ 11.351181135429046, 44.504819110264421 ], [ 11.351327168780621, 44.504793947025334 ], [ 11.351487894846628, 44.504764708860804 ], [ 11.351681194292649, 44.504725886879591 ], [ 11.351973566576492, 44.504648472906737 ], [ 11.352166831776662, 44.504595372731558 ], [ 11.352321065114811, 44.504552988386948 ], [ 11.352498281409435, 44.504502162920353 ], [ 11.352668679999654, 44.504447606585074 ], [ 11.352897334065828, 44.504371773524625 ], [ 11.353052432188255, 44.504315272340207 ], [ 11.3532886279562, 44.50422649938541 ], [ 11.353592187501306, 44.504105863356529 ], [ 11.353678227982249, 44.504073570631753 ], [ 11.353738925430122, 44.504210130462184 ] ] ] } }
]
}
