{
"type": "FeatureCollection",
"name": "boundary_FR-LYO-HAUTCOEURPENTES",
"crs": { "type": "name", "properties": { "name": "urn:ogc:def:crs:OGC:1.3:CRS84" } },
"features": [
{ "type": "Feature", "properties": { "site_id": "FR-LYO-HAUTCOEURPENTES" }, "geometry": { "type": "MultiPolygon", "coordinates": [ [ [ [ 4.83180073, 45.76895378 ], [ 4.83181704, 45.76889052 ], [ 4.83220801, 45.7689654 ], [ 4.83220856, 45.76900959 ], [ 4.83217546, 45.7690589 ], [ 4.83237952, 45.76913995 ], [ 4.83232073, 45.76924125 ], [ 4.8322839, 45.76930601 ], [ 4.83227012, 45.769329 ], [ 4.83233293, 45.76934626 ], [ 4.83238358, 45.76926354 ], [ 4.83258378, 45.76932098 ], [ 4.83263551, 45.76922808 ], [ 4.83273978, 45.76925466 ], [ 4.83282161, 45.76927134 ], [ 4.83276518, 45.7693582 ], [ 4.83274612, 45.76939262 ], [ 4.83269439, 45.76948561 ], [ 4.83262152, 45.76963574 ], [ 4.8327967, 45.76966379 ], [ 4.83286624, 45.76954153 ], [ 4.83290639, 45.76954592 ], [ 4.83291045, 45.76954054 ], [ 4.83295845, 45.76955705 ], [ 4.83294354, 45.76958843 ], [ 4.83296002, 45.76959312 ], [ 4.83297498, 45.76956291 ], [ 4.83314281, 45.76959422 ], [ 4.83317, 45.76954518 ], [ 4.83329644, 45.76956925 ], [ 4.83330555, 45.76954525 ], [ 4.83334428, 45.76955363 ], [ 4.833335, 45.76957655 ], [ 4.83335452, 45.76958334 ], [ 4.83344531, 45.76960294 ], [ 4.83345728, 45.76957584 ], [ 4.83350337, 45.76958517 ], [ 4.83352275, 45.76958783 ], [ 4.83355245, 45.76959545 ], [ 4.83358235, 45.76960514 ], [ 4.83359898, 45.76961405 ], [ 4.83363774, 45.76962342 ], [ 4.83365699, 45.76962617 ], [ 4.83373785, 45.76949238 ], [ 4.83380204, 45.76950845 ], [ 4.83372548, 45.76964001 ], [ 4.83384451, 45.7698612 ], [ 4.83405069, 45.76979164 ], [ 4.83424023, 45.76981423 ], [ 4.83441105, 45.76984244 ], [ 4.83460509, 45.76986505 ], [ 4.83476647, 45.76997792 ], [ 4.83486735, 45.7699952 ], [ 4.83504256, 45.76992631 ], [ 4.83513808, 45.76989021 ], [ 4.83516907, 45.76982347 ], [ 4.83533441, 45.76986112 ], [ 4.83534173, 45.76986082 ], [ 4.83536859, 45.76980567 ], [ 4.83537282, 45.76980137 ], [ 4.83542042, 45.7698096 ], [ 4.83557205, 45.76983722 ], [ 4.83567435, 45.76985456 ], [ 4.83585064, 45.76987331 ], [ 4.83600196, 45.76999265 ], [ 4.83658823, 45.77050655 ], [ 4.83658108, 45.77051188 ], [ 4.83655306, 45.77051251 ], [ 4.83655407, 45.77053518 ], [ 4.83657069, 45.77054409 ], [ 4.83663841, 45.7705736 ], [ 4.83661331, 45.77060397 ], [ 4.83661864, 45.7706254 ], [ 4.83659337, 45.77065083 ], [ 4.83658905, 45.77065612 ], [ 4.83654406, 45.77063749 ], [ 4.83649077, 45.77069838 ], [ 4.83643039, 45.77069666 ], [ 4.83638925, 45.77082962 ], [ 4.83637349, 45.77083924 ], [ 4.83636717, 45.77086211 ], [ 4.83650389, 45.77092093 ], [ 4.83643129, 45.77094631 ], [ 4.83630773, 45.77104487 ], [ 4.83623048, 45.77109706 ], [ 4.8360613, 45.77126693 ], [ 4.83611568, 45.77129359 ], [ 4.83607358, 45.77134296 ], [ 4.83608383, 45.77134171 ], [ 4.83615848, 45.77133187 ], [ 4.83629825, 45.77184226 ], [ 4.83635313, 45.77204415 ], [ 4.83637274, 45.77212007 ], [ 4.83636247, 45.77212446 ], [ 4.83635107, 45.77212987 ], [ 4.83634545, 45.77213509 ], [ 4.83633971, 45.7721404 ], [ 4.8363341, 45.77214571 ], [ 4.83632993, 45.77215199 ], [ 4.83632432, 45.77215721 ], [ 4.83632016, 45.77216358 ], [ 4.83631454, 45.77216889 ], [ 4.83626315, 45.77217422 ], [ 4.83631524, 45.77238119 ], [ 4.83632199, 45.77239863 ], [ 4.83635952, 45.77247615 ], [ 4.83640317, 45.77246581 ], [ 4.83646215, 45.77256567 ], [ 4.83642582, 45.7725757 ], [ 4.83645786, 45.77263081 ], [ 4.8365988, 45.77258731 ], [ 4.83669641, 45.77256359 ], [ 4.83673079, 45.77276788 ], [ 4.83674372, 45.77285948 ], [ 4.83676633, 45.77299916 ], [ 4.8368599, 45.77314561 ], [ 4.83694289, 45.77325209 ], [ 4.83700465, 45.77334659 ], [ 4.83708113, 45.77343868 ], [ 4.83714467, 45.77354044 ], [ 4.83729608, 45.77375976 ], [ 4.83716675, 45.77383178 ], [ 4.83718714, 45.7738922 ], [ 4.83735229, 45.77408754 ], [ 4.83733643, 45.77409419 ], [ 4.83739105, 45.77416306 ], [ 4.83739578, 45.77417009 ], [ 4.83741718, 45.7741872 ], [ 4.83741743, 45.77418702 ], [ 4.83744967, 45.77432231 ], [ 4.83742537, 45.7743381 ], [ 4.83741189, 45.77432715 ], [ 4.83731136, 45.77420754 ], [ 4.83725847, 45.77424179 ], [ 4.83723995, 45.77428106 ], [ 4.83722245, 45.77437431 ], [ 4.83725033, 45.77446701 ], [ 4.83695871, 45.77468017 ], [ 4.83676058, 45.77472125 ], [ 4.8367045, 45.77473287 ], [ 4.8366909, 45.77473795 ], [ 4.8366444, 45.77474338 ], [ 4.83590644, 45.774784 ], [ 4.83590385, 45.77477162 ], [ 4.83589522, 45.77475178 ], [ 4.83579186, 45.77469864 ], [ 4.83571454, 45.77468602 ], [ 4.83551837, 45.77465409 ], [ 4.83539993, 45.77463494 ], [ 4.83474537, 45.77457925 ], [ 4.83219594, 45.77436436 ], [ 4.83120865, 45.77429268 ], [ 4.83083613, 45.77427572 ], [ 4.82986081, 45.77421194 ], [ 4.82941774, 45.77417712 ], [ 4.82918878, 45.77415677 ], [ 4.82361225, 45.77371139 ], [ 4.82361224, 45.77371103 ], [ 4.82378042, 45.77355263 ], [ 4.82378836, 45.77346907 ], [ 4.82488152, 45.77270939 ], [ 4.82515546, 45.77264254 ], [ 4.82534135, 45.77287554 ], [ 4.82572628, 45.77281663 ], [ 4.82604966, 45.77276707 ], [ 4.82604624, 45.77275677 ], [ 4.82621732, 45.77272613 ], [ 4.82622736, 45.77275387 ], [ 4.82695068, 45.77255415 ], [ 4.82683217, 45.77234032 ], [ 4.82685824, 45.77233144 ], [ 4.82692347, 45.7723754 ], [ 4.82711744, 45.7723289 ], [ 4.82720652, 45.77228049 ], [ 4.82724719, 45.77229703 ], [ 4.82736173, 45.77229141 ], [ 4.82736057, 45.77233067 ], [ 4.82746659, 45.77232824 ], [ 4.82746747, 45.77241382 ], [ 4.827688, 45.77240074 ], [ 4.82780279, 45.77239503 ], [ 4.82782642, 45.77236675 ], [ 4.82790066, 45.77231254 ], [ 4.82792499, 45.77229757 ], [ 4.82792616, 45.77229026 ], [ 4.82809878, 45.77229478 ], [ 4.82813556, 45.77229491 ], [ 4.82816473, 45.77228607 ], [ 4.82816134, 45.77217884 ], [ 4.82833766, 45.77213578 ], [ 4.82826126, 45.77207661 ], [ 4.82840558, 45.77197538 ], [ 4.82801622, 45.77167572 ], [ 4.82842147, 45.77141712 ], [ 4.82851417, 45.77141212 ], [ 4.82853348, 45.77131875 ], [ 4.82855184, 45.77126679 ], [ 4.82856615, 45.77119339 ], [ 4.82874047, 45.77100689 ], [ 4.82860477, 45.77093977 ], [ 4.82911745, 45.77018893 ], [ 4.82929118, 45.76985925 ], [ 4.83038121, 45.77004639 ], [ 4.83085657, 45.77012973 ], [ 4.83106066, 45.77001592 ], [ 4.83107191, 45.77000224 ], [ 4.83108867, 45.76995238 ], [ 4.83110811, 45.7698591 ], [ 4.83111629, 45.76981459 ], [ 4.83113947, 45.76970577 ], [ 4.83120135, 45.76970648 ], [ 4.83138634, 45.76975904 ], [ 4.83141155, 45.76969671 ], [ 4.83145998, 45.76972239 ], [ 4.83151217, 45.7696707 ], [ 4.83143666, 45.76963115 ], [ 4.83146353, 45.7695759 ], [ 4.83146963, 45.76957778 ], [ 4.83152182, 45.76952618 ], [ 4.83154893, 45.76954096 ], [ 4.83158122, 45.76950624 ], [ 4.83159806, 45.76948634 ], [ 4.83166915, 45.76936406 ], [ 4.83166571, 45.76928689 ], [ 4.83170506, 45.76924774 ], [ 4.8317214, 45.76921642 ], [ 4.83174519, 45.76918904 ], [ 4.83175924, 45.76917432 ], [ 4.83180212, 45.76911351 ], [ 4.83184225, 45.76905491 ], [ 4.83182585, 45.76904914 ], [ 4.83180073, 45.76895378 ] ] ] ] } }
]
}
