{
"type": "FeatureCollection",
"name": "boundary_ES-MAD-BERRUGUETE",
"crs": { "type": "name", "properties": { "name": "urn:ogc:def:crs:OGC:1.3:CRS84" } },
"features": [
{ "type": "Feature", "properties": { "site_id": "ES-MAD-BERRUGUETE" }, "geometry": { "type": "Polygon", "coordinates": [ [ [ -3.7083681, 40.4622577 ], [ -3.7080467, 40.4624582 ], [ -3.7074023, 40.4632704 ], [ -3.706888, 40.4636174 ], [ -3.7064749, 40.4638418 ], [ -3.7060645, 40.4635337 ], [ -3.7056005, 40.4635969 ], [ -3.7052304, 40.4639071 ], [ -3.7042594, 40.4636867 ], [ -3.6983988, 40.4606338 ], [ -3.6988279, 40.4601297 ], [ -3.7005365, 40.4586338 ], [ -3.7007243, 40.4584028 ], [ -3.7014607, 40.4574972 ], [ -3.7020948, 40.4565472 ], [ -3.7021546, 40.4563986 ], [ -3.7027089, 40.4550215 ], [ -3.7029124, 40.453976 ], [ -3.7030955, 40.4542124 ], [ -3.7031122, 40.4542324 ], [ -3.7031156, 40.4542384 ], [ -3.7037663, 40.4550392 ], [ -3.7038054, 40.4550863 ], [ -3.7038321, 40.4551176 ], [ -3.7038522, 40.4551426 ], [ -3.7040598, 40.4553989 ], [ -3.7041253, 40.4554816 ], [ -3.7048299, 40.4563674 ], [ -3.7048484, 40.4563906 ], [ -3.7049015, 40.4564574 ], [ -3.7049439, 40.4565137 ], [ -3.7049734, 40.4565529 ], [ -3.7050018, 40.4565533 ], [ -3.7051286, 40.456555 ], [ -3.7051692, 40.4565556 ], [ -3.7052053, 40.4565572 ], [ -3.7053657, 40.4565644 ], [ -3.7063078, 40.4566028 ], [ -3.7064047, 40.4566067 ], [ -3.7066009, 40.4566172 ], [ -3.7066439, 40.4566195 ], [ -3.7066921, 40.4566214 ], [ -3.7076045, 40.4566575 ], [ -3.7077246, 40.4566635 ], [ -3.7077695, 40.4566657 ], [ -3.7078027, 40.4566675 ], [ -3.7081446, 40.4566823 ], [ -3.7084824, 40.4567747 ], [ -3.7096189, 40.4570929 ], [ -3.7097784, 40.4571604 ], [ -3.7104354, 40.4575632 ], [ -3.7105393, 40.45762 ], [ -3.7106324, 40.4576207 ], [ -3.710725, 40.4576178 ], [ -3.710822, 40.4576112 ], [ -3.7108683, 40.4576013 ], [ -3.7109174, 40.4575872 ], [ -3.7109765, 40.4575665 ], [ -3.7110138, 40.457551 ], [ -3.711152, 40.4574936 ], [ -3.7113958, 40.457555 ], [ -3.7114034, 40.4577334 ], [ -3.7112365, 40.4579325 ], [ -3.7106794, 40.4586453 ], [ -3.7084718, 40.4618735 ], [ -3.7083681, 40.4622577 ] ] ] } }
]
}
